CCSDS_OMM_VERS = 2.0
CREATION_DATE  = 
ORIGINATOR     = 

OBJECT_NAME    = STARLINK-35422
OBJECT_ID      = 2025-235L
CENTER_NAME    = EARTH
REF_FRAME      = TEME
TIME_SYSTEM    = UTC
MEAN_ELEMENT_THEORY = SGP/SGP4

EPOCH          = 2025-11-17T12:00:02.998944
MEAN_MOTION    = 15.39535094
ECCENTRICITY   = .0000825
INCLINATION    = 53.1606
RA_OF_ASC_NODE = 47.8382
ARG_OF_PERICENTER = 99.8472
MEAN_ANOMALY   = 276.0997

EPHEMERIS_TYPE = 0
CLASSIFICATION_TYPE = U
NORAD_CAT_ID   = 66068
ELEMENT_SET_NO = 999
REV_AT_EPOCH   = 577
BSTAR          = .17074E-2
MEAN_MOTION_DOT = .68317E-3
MEAN_MOTION_DDOT = 0

CCSDS_OMM_VERS = 2.0
CREATION_DATE  = 
ORIGINATOR     = 

OBJECT_NAME    = STARLINK-35279
OBJECT_ID      = 2025-235M
CENTER_NAME    = EARTH
REF_FRAME      = TEME
TIME_SYSTEM    = UTC
MEAN_ELEMENT_THEORY = SGP/SGP4

EPOCH          = 2025-11-17T10:12:48.273408
MEAN_MOTION    = 15.49906525
ECCENTRICITY   = .0000732
INCLINATION    = 53.1619
RA_OF_ASC_NODE = 48.1138
ARG_OF_PERICENTER = 262.2948
MEAN_ANOMALY   = 97.7979

EPHEMERIS_TYPE = 0
CLASSIFICATION_TYPE = U
NORAD_CAT_ID   = 66069
ELEMENT_SET_NO = 999
REV_AT_EPOCH   = 571
BSTAR          = .29657E-2
MEAN_MOTION_DOT = .171752E-2
MEAN_MOTION_DDOT = 0

CCSDS_OMM_VERS = 2.0
CREATION_DATE  = 
ORIGINATOR     = 

OBJECT_NAME    = STARLINK-35295
OBJECT_ID      = 2025-235N
CENTER_NAME    = EARTH
REF_FRAME      = TEME
TIME_SYSTEM    = UTC
MEAN_ELEMENT_THEORY = SGP/SGP4

EPOCH          = 2025-11-17T11:45:12.126816
MEAN_MOTION    = 15.49318396
ECCENTRICITY   = .0001712
INCLINATION    = 53.1619
RA_OF_ASC_NODE = 47.8041
ARG_OF_PERICENTER = 33.9107
MEAN_ANOMALY   = 326.2011

EPHEMERIS_TYPE = 0
CLASSIFICATION_TYPE = U
NORAD_CAT_ID   = 66070
ELEMENT_SET_NO = 999
REV_AT_EPOCH   = 572
BSTAR          = .16153E-2
MEAN_MOTION_DOT = .90464E-3
MEAN_MOTION_DDOT = 0

CCSDS_OMM_VERS = 2.0
CREATION_DATE  = 
ORIGINATOR     = 

OBJECT_NAME    = STARLINK-35323
OBJECT_ID      = 2025-235P
CENTER_NAME    = EARTH
REF_FRAME      = TEME
TIME_SYSTEM    = UTC
MEAN_ELEMENT_THEORY = SGP/SGP4

EPOCH          = 2025-11-17T11:45:41.642784
MEAN_MOTION    = 15.49436036
ECCENTRICITY   = .0000804
INCLINATION    = 53.1624
RA_OF_ASC_NODE = 47.8060
ARG_OF_PERICENTER = 115.0052
MEAN_ANOMALY   = 245.1041

EPHEMERIS_TYPE = 0
CLASSIFICATION_TYPE = U
NORAD_CAT_ID   = 66071
ELEMENT_SET_NO = 999
REV_AT_EPOCH   = 572
BSTAR          = .28595E-2
MEAN_MOTION_DOT = .162667E-2
MEAN_MOTION_DDOT = 0

CCSDS_OMM_VERS = 2.0
CREATION_DATE  = 
ORIGINATOR     = 

OBJECT_NAME    = STARLINK-35299
OBJECT_ID      = 2025-235Q
CENTER_NAME    = EARTH
REF_FRAME      = TEME
TIME_SYSTEM    = UTC
MEAN_ELEMENT_THEORY = SGP/SGP4

EPOCH          = 2025-11-17T09:35:19.390272
MEAN_MOTION    = 15.39694707
ECCENTRICITY   = .0000689
INCLINATION    = 53.1615
RA_OF_ASC_NODE = 48.6659
ARG_OF_PERICENTER = 68.5096
MEAN_ANOMALY   = 291.5982

EPHEMERIS_TYPE = 0
CLASSIFICATION_TYPE = U
NORAD_CAT_ID   = 66072
ELEMENT_SET_NO = 999
REV_AT_EPOCH   = 570
BSTAR          = .27752E-2
MEAN_MOTION_DOT = .112535E-2
MEAN_MOTION_DDOT = 0

CCSDS_OMM_VERS = 2.0
CREATION_DATE  = 
ORIGINATOR     = 

OBJECT_NAME    = STARLINK-35274
OBJECT_ID      = 2025-235R
CENTER_NAME    = EARTH
REF_FRAME      = TEME
TIME_SYSTEM    = UTC
MEAN_ELEMENT_THEORY = SGP/SGP4

EPOCH          = 2025-11-17T11:02:06.396000
MEAN_MOTION    = 15.39575737
ECCENTRICITY   = .0001661
INCLINATION    = 53.1615
RA_OF_ASC_NODE = 48.3305
ARG_OF_PERICENTER = 112.0580
MEAN_ANOMALY   = 248.0601

EPHEMERIS_TYPE = 0
CLASSIFICATION_TYPE = U
NORAD_CAT_ID   = 66073
ELEMENT_SET_NO = 999
REV_AT_EPOCH   = 571
BSTAR          = .17992E-2
MEAN_MOTION_DOT = .72145E-3
MEAN_MOTION_DDOT = 0

CCSDS_OMM_VERS = 2.0
CREATION_DATE  = 
ORIGINATOR     = 

OBJECT_NAME    = STARLINK-35321
OBJECT_ID      = 2025-235S
CENTER_NAME    = EARTH
REF_FRAME      = TEME
TIME_SYSTEM    = UTC
MEAN_ELEMENT_THEORY = SGP/SGP4

EPOCH          = 2025-11-17T12:28:54.182784
MEAN_MOTION    = 15.39586995
ECCENTRICITY   = .0001117
INCLINATION    = 53.1623
RA_OF_ASC_NODE = 47.9948
ARG_OF_PERICENTER = 107.9703
MEAN_ANOMALY   = 252.1424

EPHEMERIS_TYPE = 0
CLASSIFICATION_TYPE = U
NORAD_CAT_ID   = 66074
ELEMENT_SET_NO = 999
REV_AT_EPOCH   = 572
BSTAR          = .14675E-2
MEAN_MOTION_DOT = .58686E-3
MEAN_MOTION_DDOT = 0

CCSDS_OMM_VERS = 2.0
CREATION_DATE  = 
ORIGINATOR     = 

OBJECT_NAME    = STARLINK-35131
OBJECT_ID      = 2025-235T
CENTER_NAME    = EARTH
REF_FRAME      = TEME
TIME_SYSTEM    = UTC
MEAN_ELEMENT_THEORY = SGP/SGP4

EPOCH          = 2025-11-17T12:00:02.998944
MEAN_MOTION    = 15.39581402
ECCENTRICITY   = .0001724
INCLINATION    = 53.1614
RA_OF_ASC_NODE = 47.9347
ARG_OF_PERICENTER = 99.8909
MEAN_ANOMALY   = 226.3647

EPHEMERIS_TYPE = 0
CLASSIFICATION_TYPE = U
NORAD_CAT_ID   = 66075
ELEMENT_SET_NO = 999
REV_AT_EPOCH   = 581
BSTAR          = .94952E-3
MEAN_MOTION_DOT = .37721E-3
MEAN_MOTION_DDOT = 0

CCSDS_OMM_VERS = 2.0
CREATION_DATE  = 
ORIGINATOR     = 

OBJECT_NAME    = STARLINK-34801
OBJECT_ID      = 2025-235U
CENTER_NAME    = EARTH
REF_FRAME      = TEME
TIME_SYSTEM    = UTC
MEAN_ELEMENT_THEORY = SGP/SGP4

EPOCH          = 2025-11-17T12:00:02.998944
MEAN_MOTION    = 15.39583504
ECCENTRICITY   = .0000841
INCLINATION    = 53.1607
RA_OF_ASC_NODE = 48.0381
ARG_OF_PERICENTER = 116.4396
MEAN_ANOMALY   = 158.3025

EPHEMERIS_TYPE = 0
CLASSIFICATION_TYPE = U
NORAD_CAT_ID   = 66076
ELEMENT_SET_NO = 999
REV_AT_EPOCH   = 581
BSTAR          = .10301E-2
MEAN_MOTION_DOT = .40976E-3
MEAN_MOTION_DDOT = 0

CCSDS_OMM_VERS = 2.0
CREATION_DATE  = 
ORIGINATOR     = 

OBJECT_NAME    = STARLINK-35129
OBJECT_ID      = 2025-235V
CENTER_NAME    = EARTH
REF_FRAME      = TEME
TIME_SYSTEM    = UTC
MEAN_ELEMENT_THEORY = SGP/SGP4

EPOCH          = 2025-11-17T12:00:02.998944
MEAN_MOTION    = 15.39582791
ECCENTRICITY   = .0001525
INCLINATION    = 53.1611
RA_OF_ASC_NODE = 47.9872
ARG_OF_PERICENTER = 80.8201
MEAN_ANOMALY   = 219.6802

EPHEMERIS_TYPE = 0
CLASSIFICATION_TYPE = U
NORAD_CAT_ID   = 66077
ELEMENT_SET_NO = 999
REV_AT_EPOCH   = 581
BSTAR          = .97133E-3
MEAN_MOTION_DOT = .38602E-3
MEAN_MOTION_DDOT = 0

CCSDS_OMM_VERS = 2.0
CREATION_DATE  = 
ORIGINATOR     = 

OBJECT_NAME    = STARLINK-35116
OBJECT_ID      = 2025-235W
CENTER_NAME    = EARTH
REF_FRAME      = TEME
TIME_SYSTEM    = UTC
MEAN_ELEMENT_THEORY = SGP/SGP4

EPOCH          = 2025-11-17T12:00:02.998944
MEAN_MOTION    = 15.39600940
ECCENTRICITY   = .0002123
INCLINATION    = 53.1607
RA_OF_ASC_NODE = 47.8314
ARG_OF_PERICENTER = 79.9954
MEAN_ANOMALY   = 297.7038

EPHEMERIS_TYPE = 0
CLASSIFICATION_TYPE = U
NORAD_CAT_ID   = 66078
ELEMENT_SET_NO = 999
REV_AT_EPOCH   = 581
BSTAR          = .12345E-2
MEAN_MOTION_DOT = .49269E-3
MEAN_MOTION_DDOT = 0

CCSDS_OMM_VERS = 2.0
CREATION_DATE  = 
ORIGINATOR     = 

OBJECT_NAME    = STARLINK-35402
OBJECT_ID      = 2025-235X
CENTER_NAME    = EARTH
REF_FRAME      = TEME
TIME_SYSTEM    = UTC
MEAN_ELEMENT_THEORY = SGP/SGP4

EPOCH          = 2025-11-17T12:00:02.998944
MEAN_MOTION    = 15.39929403
ECCENTRICITY   = .0001443
INCLINATION    = 53.1605
RA_OF_ASC_NODE = 47.7803
ARG_OF_PERICENTER = 76.7355
MEAN_ANOMALY   = 326.6446

EPHEMERIS_TYPE = 0
CLASSIFICATION_TYPE = U
NORAD_CAT_ID   = 66079
ELEMENT_SET_NO = 999
REV_AT_EPOCH   = 581
BSTAR          = -.13979E-1
MEAN_MOTION_DOT = -.527865E-2
MEAN_MOTION_DDOT = 0

CCSDS_OMM_VERS = 2.0
CREATION_DATE  = 
ORIGINATOR     = 

OBJECT_NAME    = STARLINK-35325
OBJECT_ID      = 2025-235Y
CENTER_NAME    = EARTH
REF_FRAME      = TEME
TIME_SYSTEM    = UTC
MEAN_ELEMENT_THEORY = SGP/SGP4

EPOCH          = 2025-11-17T12:00:02.998944
MEAN_MOTION    = 15.39574515
ECCENTRICITY   = .0001617
INCLINATION    = 53.1612
RA_OF_ASC_NODE = 47.8823
ARG_OF_PERICENTER = 80.7312
MEAN_ANOMALY   = 271.2846

EPHEMERIS_TYPE = 0
CLASSIFICATION_TYPE = U
NORAD_CAT_ID   = 66080
ELEMENT_SET_NO = 999
REV_AT_EPOCH   = 581
BSTAR          = .11599E-2
MEAN_MOTION_DOT = .46207E-3
MEAN_MOTION_DDOT = 0

CCSDS_OMM_VERS = 2.0
CREATION_DATE  = 
ORIGINATOR     = 

OBJECT_NAME    = STARLINK-35403
OBJECT_ID      = 2025-235Z
CENTER_NAME    = EARTH
REF_FRAME      = TEME
TIME_SYSTEM    = UTC
MEAN_ELEMENT_THEORY = SGP/SGP4

EPOCH          = 2025-11-16T16:00:01.999584
MEAN_MOTION    = 15.49653981
ECCENTRICITY   = .00013187
INCLINATION    = 53.1613
RA_OF_ASC_NODE = 51.6961
ARG_OF_PERICENTER = 79.0983
MEAN_ANOMALY   = 28.9682

EPHEMERIS_TYPE = 0
CLASSIFICATION_TYPE = U
NORAD_CAT_ID   = 66081
ELEMENT_SET_NO = 999
REV_AT_EPOCH   = 568
BSTAR          = -.22156063E-1
MEAN_MOTION_DOT = -.1125421E-1
MEAN_MOTION_DDOT = 0

CCSDS_OMM_VERS = 2.0
CREATION_DATE  = 
ORIGINATOR     = 

OBJECT_NAME    = STARLINK-35011
OBJECT_ID      = 2025-235AA
CENTER_NAME    = EARTH
REF_FRAME      = TEME
TIME_SYSTEM    = UTC
MEAN_ELEMENT_THEORY = SGP/SGP4

EPOCH          = 2025-11-16T08:00:01.999872
MEAN_MOTION    = 15.48800665
ECCENTRICITY   = .00010163
INCLINATION    = 53.1609
RA_OF_ASC_NODE = 53.2901
ARG_OF_PERICENTER = 105.0468
MEAN_ANOMALY   = 300.7853

EPHEMERIS_TYPE = 0
CLASSIFICATION_TYPE = U
NORAD_CAT_ID   = 66082
ELEMENT_SET_NO = 999
REV_AT_EPOCH   = 563
BSTAR          = -.43491661E-1
MEAN_MOTION_DOT = -.2108253E-1
MEAN_MOTION_DDOT = 0

